ORBCOMM FM115           
1 41186U 15081H   24361.79324244  .00002920  00000+0  61295-3 0  9994
2 41186  46.9966 139.1097 0001271 278.3549  81.7194 14.61850383482543
ORBCOMM FM108           
1 41187U 15081J   24361.60882855  .00001937  00000+0  45740-3 0  9996
2 41187  47.0033 201.6716 0002969 223.9128 136.1521 14.57641369481611
ORBCOMM FM117           
1 41188U 15081K   24361.84971725  .00001362  00000+0  33270-3 0  9995
2 41188  46.9993 199.3600 0003268 238.1475 121.9092 14.57637743481690
ORBCOMM FM116           
1 41189U 15081L   24361.90810800  .00003226  00000+0  73732-3 0  9997
2 41189  47.0015 288.9288 0002419 330.7329  29.3421 14.57641202480511
